{"properties": {"name": "feux_sonores_wgs84"}, "type": "FeatureCollection", "features": [{"properties": {"code_postal": "17000", "Y": "6570448", "CoordGeocodeStatus": "", "adresse": "Quai Duperr\u00e9", "id": "1", "X": "379612", "ville": "La Rochelle"}, "type": "Feature", "geometry": {"type": "Point", "coordinates": [-1.15359206265492, 46.1579968680814]}}, {"properties": {"code_postal": "17000", "Y": "6570459", "CoordGeocodeStatus": "", "adresse": "Quai Duperr\u00e9", "id": "2", "X": "379609", "ville": "La Rochelle"}, "type": "Feature", "geometry": {"type": "Point", "coordinates": [-1.15363837830392, 46.1580943641757]}}, {"properties": {"code_postal": "17000", "Y": "6570461", "CoordGeocodeStatus": "", "adresse": "Quai Maubec", "id": "3", "X": "379811", "ville": "La Rochelle"}, "type": "Feature", "geometry": {"type": "Point", "coordinates": [-1.15102577933729, 46.158207958188]}}, {"properties": {"code_postal": "17000", "Y": "6570458", "CoordGeocodeStatus": "", "adresse": "Quai Maubec", "id": "4", "X": "379820", "ville": "La Rochelle"}, "type": "Feature", "geometry": {"type": "Point", "coordinates": [-1.15090727284542, 46.1581852393366]}}, {"properties": {"code_postal": "17000", "Y": "6570453", "CoordGeocodeStatus": "", "adresse": "Quai Duperr\u00e9", "id": "5", "X": "379827", "ville": "La Rochelle"}, "type": "Feature", "geometry": {"type": "Point", "coordinates": [-1.15081328555694, 46.1581435892384]}}, {"properties": {"code_postal": "17000", "Y": "6570448", "CoordGeocodeStatus": "", "adresse": "Quai Duperr\u00e9", "id": "6", "X": "379824", "ville": "La Rochelle"}, "type": "Feature", "geometry": {"type": "Point", "coordinates": [-1.15084870244252, 46.1580972076975]}}, {"properties": {"code_postal": "17000", "Y": "6569886", "CoordGeocodeStatus": "", "adresse": "Boulevard Joffre", "id": "7", "X": "380132", "ville": "La Rochelle"}, "type": "Feature", "geometry": {"type": "Point", "coordinates": [-1.14648080032444, 46.1531891095259]}}, {"properties": {"code_postal": "17000", "Y": "6569879", "CoordGeocodeStatus": "", "adresse": "Boulevard Joffre", "id": "8", "X": "380138", "ville": "La Rochelle"}, "type": "Feature", "geometry": {"type": "Point", "coordinates": [-1.14639840406689, 46.1531289982111]}}, {"properties": {"code_postal": "17000", "Y": "6569877", "CoordGeocodeStatus": "", "adresse": "Boulevard Joffre", "id": "9", "X": "380142", "ville": "La Rochelle"}, "type": "Feature", "geometry": {"type": "Point", "coordinates": [-1.14634528684878, 46.1531129038422]}}, {"properties": {"code_postal": "17000", "Y": "6569871", "CoordGeocodeStatus": "", "adresse": "Boulevard Joffre", "id": "10", "X": "380146", "ville": "La Rochelle"}, "type": "Feature", "geometry": {"type": "Point", "coordinates": [-1.14628944941807, 46.1530608396355]}}, {"properties": {"code_postal": "17000", "Y": "6569920", "CoordGeocodeStatus": "", "adresse": "Boulevard Joffre", "id": "11", "X": "380173", "ville": "La Rochelle"}, "type": "Feature", "geometry": {"type": "Point", "coordinates": [-1.14597340992133, 46.1535142302698]}}, {"properties": {"code_postal": "17000", "Y": "6569915", "CoordGeocodeStatus": "", "adresse": "Boulevard Joffre", "id": "12", "X": "380178", "ville": "La Rochelle"}, "type": "Feature", "geometry": {"type": "Point", "coordinates": [-1.14590531308599, 46.1534716309189]}}, {"properties": {"code_postal": "17000", "Y": "6569912", "CoordGeocodeStatus": "", "adresse": "Boulevard Joffre", "id": "13", "X": "380183", "ville": "La Rochelle"}, "type": "Feature", "geometry": {"type": "Point", "coordinates": [-1.1458385763387, 46.1534470164383]}}, {"properties": {"code_postal": "17000", "Y": "6569904", "CoordGeocodeStatus": "", "adresse": "Boulevard Joffre", "id": "14", "X": "380188", "ville": "La Rochelle"}, "type": "Feature", "geometry": {"type": "Point", "coordinates": [-1.14576843975332, 46.1533774396378]}}, {"properties": {"code_postal": "17000", "Y": "6569916", "CoordGeocodeStatus": "", "adresse": "Avenue du G\u00e9n\u00e9ral De Gaulle", "id": "15", "X": "380168", "ville": "La Rochelle"}, "type": "Feature", "geometry": {"type": "Point", "coordinates": [-1.14603538663737, 46.1534758974892]}}, {"properties": {"code_postal": "17000", "Y": "6569907", "CoordGeocodeStatus": "", "adresse": "Avenue du G\u00e9n\u00e9ral De Gaulle", "id": "16", "X": "380156", "ville": "La Rochelle"}, "type": "Feature", "geometry": {"type": "Point", "coordinates": [-1.14618453843092, 46.1533892941499]}}, {"properties": {"code_postal": "17000", "Y": "6569898", "CoordGeocodeStatus": "", "adresse": "Avenue du G\u00e9n\u00e9ral De Gaulle", "id": "17", "X": "380146", "ville": "La Rochelle"}, "type": "Feature", "geometry": {"type": "Point", "coordinates": [-1.1463078111326, 46.1533036358709]}}, {"properties": {"code_postal": "17000", "Y": "6569890", "CoordGeocodeStatus": "", "adresse": "Avenue du G\u00e9n\u00e9ral De Gaulle", "id": "18", "X": "380132", "ville": "La Rochelle"}, "type": "Feature", "geometry": {"type": "Point", "coordinates": [-1.14648352069997, 46.1532250793342]}}, {"properties": {"code_postal": "17000", "Y": "6570485", "CoordGeocodeStatus": "", "adresse": "Rue L\u00e9once Vieljeux", "id": "19", "X": "379392", "ville": "La Rochelle"}, "type": "Feature", "geometry": {"type": "Point", "coordinates": [-1.15646416143124, 46.1582253904443]}}, {"properties": {"code_postal": "17000", "Y": "6570473", "CoordGeocodeStatus": "", "adresse": "Rue L\u00e9once Vieljeux", "id": "20", "X": "379388", "ville": "La Rochelle"}, "type": "Feature", "geometry": {"type": "Point", "coordinates": [-1.15650774137595, 46.158115586631]}}, {"properties": {"code_postal": "17000", "Y": "6570489", "CoordGeocodeStatus": "", "adresse": "Rue L\u00e9once Vieljeux", "id": "21", "X": "379378", "ville": "La Rochelle"}, "type": "Feature", "geometry": {"type": "Point", "coordinates": [-1.15664805407046, 46.1582547268855]}}, {"properties": {"code_postal": "17000", "Y": "6570479", "CoordGeocodeStatus": "", "adresse": "Rue L\u00e9once Vieljeux", "id": "22", "X": "379374", "ville": "La Rochelle"}, "type": "Feature", "geometry": {"type": "Point", "coordinates": [-1.15669299732738, 46.1581629077778]}}, {"properties": {"code_postal": "17000", "Y": "6570492", "CoordGeocodeStatus": "", "adresse": "Rue R\u00e9aumur", "id": "23", "X": "379380", "ville": "La Rochelle"}, "type": "Feature", "geometry": {"type": "Point", "coordinates": [-1.1566242187474, 46.158282651656]}}, {"properties": {"code_postal": "17000", "Y": "6570488", "CoordGeocodeStatus": "", "adresse": "Rue R\u00e9aumur", "id": "24", "X": "379391", "ville": "La Rochelle"}, "type": "Feature", "geometry": {"type": "Point", "coordinates": [-1.15647914719809, 46.1582518938277]}}, {"properties": {"code_postal": "17000", "Y": "6570475", "CoordGeocodeStatus": "", "adresse": "Rue R\u00e9aumur", "id": "25", "X": "379375", "ville": "La Rochelle"}, "type": "Feature", "geometry": {"type": "Point", "coordinates": [-1.15667732965576, 46.1581274120345]}}, {"properties": {"code_postal": "17000", "Y": "6570470", "CoordGeocodeStatus": "", "adresse": "Rue R\u00e9aumur", "id": "26", "X": "379387", "ville": "La Rochelle"}, "type": "Feature", "geometry": {"type": "Point", "coordinates": [-1.15651863633488, 46.158088135675]}}, {"properties": {"code_postal": "17000", "Y": "6570902", "CoordGeocodeStatus": "", "adresse": "Rue de la Noue", "id": "27", "X": "379504", "ville": "La Rochelle"}, "type": "Feature", "geometry": {"type": "Point", "coordinates": [-1.15529906493739, 46.1620282740461]}}, {"properties": {"code_postal": "17000", "Y": "6570897", "CoordGeocodeStatus": "", "adresse": "Rue de la Noue", "id": "28", "X": "379518", "ville": "La Rochelle"}, "type": "Feature", "geometry": {"type": "Point", "coordinates": [-1.15511447875461, 46.1619899430341]}}, {"properties": {"code_postal": "17000", "Y": "6570954", "CoordGeocodeStatus": "", "adresse": "Avenue du G\u00e9n\u00e9ral Leclerc", "id": "29", "X": "379251", "ville": "La Rochelle"}, "type": "Feature", "geometry": {"type": "Point", "coordinates": [-1.15860867818159, 46.1623759967427]}}, {"properties": {"code_postal": "17000", "Y": "6570951", "CoordGeocodeStatus": "", "adresse": "Avenue du G\u00e9n\u00e9ral Leclerc", "id": "30", "X": "379265", "ville": "La Rochelle"}, "type": "Feature", "geometry": {"type": "Point", "coordinates": [-1.15842545284597, 46.1623556558576]}}, {"properties": {"code_postal": "17000", "Y": "6571054", "CoordGeocodeStatus": "", "adresse": "Avenue du G\u00e9n\u00e9ral Leclerc", "id": "31", "X": "378741", "ville": "La Rochelle"}, "type": "Feature", "geometry": {"type": "Point", "coordinates": [-1.16527706310622, 46.1630332844678]}}, {"properties": {"code_postal": "17000", "Y": "6571052", "CoordGeocodeStatus": "", "adresse": "Avenue du G\u00e9n\u00e9ral Leclerc", "id": "32", "X": "378756", "ville": "La Rochelle"}, "type": "Feature", "geometry": {"type": "Point", "coordinates": [-1.16508157492939, 46.1630224214353]}}, {"properties": {"code_postal": "17000", "Y": "6570559", "CoordGeocodeStatus": "", "adresse": "Avenue Jean Guiton", "id": "33", "X": "379151", "ville": "La Rochelle"}, "type": "Feature", "geometry": {"type": "Point", "coordinates": [-1.15963327836575, 46.1587766012572]}}, {"properties": {"code_postal": "17000", "Y": "6570556", "CoordGeocodeStatus": "", "adresse": "Avenue Jean Guiton", "id": "34", "X": "379166", "ville": "La Rochelle"}, "type": "Feature", "geometry": {"type": "Point", "coordinates": [-1.15943712418609, 46.1587567361419]}}, {"properties": {"code_postal": "17000", "Y": "6570540", "CoordGeocodeStatus": "", "adresse": "Avenue Jean Guiton", "id": "35", "X": "379163", "ville": "La Rochelle"}, "type": "Feature", "geometry": {"type": "Point", "coordinates": [-1.1594650289904, 46.1586114358345]}}, {"properties": {"code_postal": "17000", "Y": "6570542", "CoordGeocodeStatus": "", "adresse": "Avenue Jean Guiton", "id": "36", "X": "379149", "ville": "La Rochelle"}, "type": "Feature", "geometry": {"type": "Point", "coordinates": [-1.15964755989004, 46.1586227826786]}}]}